0 SL-12 R/B(2)
1 26381U 00031D   13282.24869570 -.00000221  00000-0  10000-3 0  7382
2 26381 011.2514 044.5456 0013902 001.9343 358.0751 00.99439267 48289
0 SL-12 R/B(2)
1 26381U 00031D   13285.26550340 -.00000187  00000-0  10000-3 0  7391
2 26381 011.2565 044.5103 0013911 002.0861 357.9269 00.99438208 48311
0 SL-12 R/B(2)
1 26381U 00031D   13287.27670414 -.00000158  00000-0  10000-3 0  7409
2 26381 011.2598 044.4866 0013917 002.2002 357.8069 00.99437581 48339
0 SL-12 R/B(2)
1 26381U 00031D   13290.29348401 -.00000107  00000-0  10000-3 0  7418
2 26381 011.2649 044.4514 0013917 002.1889 357.7926 00.99436813 48369
0 SL-12 R/B(2)
1 26381U 00031D   13291.29908407 -.00000089  00000-0  10000-3 0  7427
2 26381 011.2674 044.4403 0013377 000.8362 359.1308 00.99436595 48373
0 SL-12 R/B(2)
1 26381U 00031D   13293.31030836 -.00000052  00000-0  10000-3 0  7435
2 26381 011.2708 044.4167 0013390 000.9374 359.0224 00.99436312 48392
0 SL-12 R/B(2)
1 26381U 00031D   13295.32155957 -.00000017  00000-0  10000-3 0  7442
2 26381 011.2742 044.3928 0013395 001.0147 358.9464 00.99436169 48416
